H1 CPF 01  gfz 2022 04 27 12  6172 terrasarx 
H2 0702601  6201 31698    2022 04 27 12 59 42 2022 05 02 00 00 42   120 1 1  0 0 0
H9
10 0 59697  76302.000000  0    1332111.126   -146177.189  -6763653.107
10 0 59697  76422.000000  0    1906936.457   -836471.141  -6573133.534
10 0 59697  76542.000000  0    2436689.365  -1521939.530  -6267931.133
10 0 59697  76662.000000  0    2912362.149  -2189824.125  -5853303.470
10 0 59697  76782.000000  0    3326086.071  -2827501.059  -5336407.588
10 0 59697  76902.000000  0    3671265.119  -3422719.386  -4726188.179
10 0 59697  77022.000000  0    3942684.530  -3963837.190  -4033231.667
10 0 59697  77142.000000  0    4136593.416  -4440050.840  -3269592.934
10 0 59697  77262.000000  0    4250761.501  -4841615.316  -2448594.164
10 0 59697  77382.000000  0    4284507.011  -5160049.872  -1584596.712
10 0 59697  77502.000000  0    4238692.437  -5388323.145   -692749.536
10 0 59697  77622.000000  0    4115689.471  -5521011.578    211280.318
10 0 59697  77742.000000  0    3919312.600  -5554427.792   1111589.412
10 0 59697  77862.000000  0    3654723.615  -5486714.954   1992326.641
10 0 59697  77982.000000  0    3328307.624  -5317902.765   2837981.864
10 0 59697  78102.000000  0    2947524.846  -5049926.343   3633666.115
10 0 59697  78222.000000  0    2520742.890  -4686606.119   4365379.717
10 0 59697  78342.000000  0    2057053.618  -4233589.960   5020261.966
10 0 59697  78462.000000  0    1566078.656  -3698259.021   5586817.537
10 0 59697  78582.000000  0    1057768.440  -3089599.911   6055116.541
10 0 59697  78702.000000  0     542198.784  -2418046.234   6416963.169
10 0 59697  78822.000000  0      29370.702  -1695294.473   6666032.067
10 0 59697  78942.000000  0    -470982.635   -934097.647   6797972.594
10 0 59697  79062.000000  0    -949579.344   -148038.569   6810481.207
10 0 59697  79182.000000  0   -1397760.125    648713.003   6703338.921
10 0 59697  79302.000000  0   -1807644.410   1441655.223   6478414.591
10 0 59697  79422.000000  0   -2172269.014   2216217.065   6139634.369
10 0 59697  79542.000000  0   -2485707.268   2958025.829   5692917.489
10 0 59697  79662.000000  0   -2743166.505   3653175.135   5146078.847
10 0 59697  79782.000000  0   -2941063.667   4288489.084   4508699.277
10 0 59697  79902.000000  0   -3077076.293   4851777.830   3791962.928
10 0 59697  80022.000000  0   -3150167.543   5332079.039   3008464.150
10 0 59697  80142.000000  0   -3160584.320   5719878.882   2171986.054
10 0 59697  80262.000000  0   -3109828.998   6007306.982   1297255.505
10 0 59697  80382.000000  0   -3000604.661   6188301.558    399679.347
10 0 59697  80502.000000  0   -2836735.197   6258740.609   -504934.228
10 0 59697  80622.000000  0   -2623062.913   6216534.496  -1400663.600
10 0 59697  80742.000000  0   -2365324.604   6061676.267  -2271765.491
10 0 59697  80862.000000  0   -2070008.491   5796246.402  -3102959.483
10 0 59697  80982.000000  0   -1744199.102   5424378.214  -3879698.306
10 0 59697  81102.000000  0   -1395413.858   4952183.439  -4588423.035
10 0 59697  81222.000000  0   -1031435.095   4387640.035  -5216795.581
10 0 59697  81342.000000  0    -660141.455   3740447.763  -5753906.687
10 0 59697  81462.000000  0    -289341.420   3021852.659  -6190457.211
10 0 59697  81582.000000  0      73386.945   2244444.098  -6518908.194
10 0 59697  81702.000000  0     420845.965   1421931.620  -6733598.914
10 0 59697  81822.000000  0     746356.470    568904.264  -6830835.571
10 0 59697  81942.000000  0    1043882.556   -299424.622  -6808947.818
10 0 59697  82062.000000  0    1308140.159  -1167483.678  -6668313.568
10 0 59697  82182.000000  0    1534688.209  -2019615.370  -6411351.750
10 0 59697  82302.000000  0    1720002.207  -2840350.711  -6042485.888
10 0 59697  82422.000000  0    1861529.198  -3614685.325  -5568077.650
10 0 59697  82542.000000  0    1957722.472  -4328354.314  -4996328.004
10 0 59697  82662.000000  0    2008055.576  -4968096.485  -4337144.851
10 0 59697  82782.000000  0    2013015.599  -5521904.949  -3601982.519
10 0 59697  82902.000000  0    1974075.181  -5979261.470  -2803652.066
10 0 59697  83022.000000  0    1893642.897  -6331347.585  -1956103.875
10 0 59697  83142.000000  0    1774993.067  -6571225.463  -1074185.041
10 0 59697  83262.000000  0    1622177.550  -6693985.941   -173378.106
10 0 59697  83382.000000  0    1439920.483  -6696856.542    730477.843
10 0 59697  83502.000000  0    1233497.966  -6579267.540   1621471.891
10 0 59697  83622.000000  0    1008606.166  -6342875.018   2483912.019
10 0 59697  83742.000000  0     771221.636  -5991535.674   3302610.605
10 0 59697  83862.000000  0     527455.877  -5531238.604   4063158.394
10 0 59697  83982.000000  0     283409.794  -4969995.624   4752181.943
10 0 59697  84102.000000  0      45030.792  -4317692.474   5357580.474
10 0 59697  84222.000000  0    -182023.516  -3585904.561   5868737.127
10 0 59697  84342.000000  0    -392511.661  -2787681.485   6276701.660
10 0 59697  84462.000000  0    -581723.129  -1937306.519   6574339.759
10 0 59697  84582.000000  0    -745578.838  -1050038.021   6756450.943
10 0 59697  84702.000000  0    -880715.656   -141834.098   6819855.292
10 0 59697  84822.000000  0    -984553.971    770935.349   6763446.034
10 0 59697  84942.000000  0   -1055346.283   1671783.409   6588207.400
10 0 59697  85062.000000  0   -1092206.246   2544403.224   6297198.373
10 0 59697  85182.000000  0   -1095118.524   3372963.060   5895502.781
10 0 59697  85302.000000  0   -1064929.203   4142395.414   5390145.593
10 0 59697  85422.000000  0   -1003315.915   4838674.587   4789976.145
10 0 59697  85542.000000  0    -912739.783   5449079.591   4105519.266
10 0 59697  85662.000000  0    -796378.306   5962434.516   3348793.744
10 0 59697  85782.000000  0    -658042.640   6369322.602   2533105.633
10 0 59697  85902.000000  0    -502079.474   6662271.823   1672811.931
10 0 59697  86022.000000  0    -333258.263   6835899.604    783062.344
10 0 59697  86142.000000  0    -156648.755   6887017.486   -120473.749
10 0 59697  86262.000000  0      22508.676   6814693.208  -1021891.522
10 0 59697  86382.000000  0     198936.705   6620265.976  -1905341.091
10 0 59698    102.000000  0     367453.516   6307314.121  -2755313.862
10 0 59698    222.000000  0     523102.043   5881580.226  -3556919.300
10 0 59698    342.000000  0     661273.437   5350854.857  -4296148.108
10 0 59698    462.000000  0     777821.383   4724821.500  -4960115.864
10 0 59698    582.000000  0     869164.633   4014867.725  -5537282.436
10 0 59698    702.000000  0     932375.294   3233867.950  -6017644.372
10 0 59698    822.000000  0     965250.863   2395942.280  -6392898.232
10 0 59698    942.000000  0     966369.622   1516197.322  -6656571.929
10 0 59698   1062.000000  0     935127.909    610454.991  -6804125.796
10 0 59698   1182.000000  0     871759.270   -305028.522  -6833022.884
10 0 59698   1302.000000  0     777335.094  -1213849.209  -6742767.242
10 0 59698   1422.000000  0     653746.512  -2099741.514  -6534909.755
10 0 59698   1542.000000  0     503668.825  -2946860.796  -6213025.135
10 0 59698   1662.000000  0     330507.491  -3740062.882  -5782659.348
10 0 59698   1782.000000  0     138326.942  -4465173.583  -5251242.520
10 0 59698   1902.000000  0     -68235.901  -5109243.338  -4627971.929
10 0 59698   2022.000000  0    -284073.545  -5660784.562  -3923664.436
10 0 59698   2142.000000  0    -503722.896  -6109986.102  -3150578.225
10 0 59698   2262.000000  0    -721491.013  -6448899.098  -2322206.522
10 0 59698   2382.000000  0    -931589.194  -6671591.035  -1453046.048
10 0 59698   2502.000000  0   -1128271.964  -6774262.398   -558342.209
10 0 59698   2622.000000  0   -1305977.596  -6755321.501    346182.775
10 0 59698   2742.000000  0   -1459466.839  -6615415.746   1244612.810
10 0 59698   2862.000000  0   -1583956.467  -6357418.259   2121126.586
10 0 59698   2982.000000  0   -1675243.484  -5986369.115   2960285.678
10 0 59698   3102.000000  0   -1729816.872  -5509372.375   3747314.761
10 0 59698   3222.000000  0   -1744953.335  -4935452.254   4468367.533
10 0 59698   3342.000000  0   -1718795.508  -4275373.445   5110772.197
10 0 59698   3462.000000  0   -1650411.898  -3541430.592   5663254.657
10 0 59698   3582.000000  0   -1539835.711  -2747208.954   6116134.203
10 0 59698   3702.000000  0   -1388081.514  -1907325.173   6461486.664
10 0 59698   3822.000000  0   -1197140.992  -1037154.623   6693276.715
10 0 59698   3942.000000  0    -969958.677   -152547.037   6807457.888
10 0 59698   4062.000000  0    -710387.368    730462.529   6802038.008
10 0 59698   4182.000000  0    -423122.720   1595943.600   6677112.456
10 0 59698   4302.000000  0    -113618.167   2428357.379   6434862.632
10 0 59698   4422.000000  0     212018.051   3212835.498   6079519.928
10 0 59698   4542.000000  0     547141.542   3935446.651   5617296.560
10 0 59698   4662.000000  0     884704.728   4583447.627   5056282.663
10 0 59698   4782.000000  0    1217402.438   5145513.834   4406310.679
10 0 59698   4902.000000  0    1537826.334   5611944.530   3678787.397
10 0 59698   5022.000000  0    1838625.739   5974839.420   2886499.586
10 0 59698   5142.000000  0    2112673.712   6228243.835   2043388.071
10 0 59698   5262.000000  0    2353228.809   6368254.252   1164298.068
10 0 59698   5382.000000  0    2554092.726   6393082.299    264710.657
10 0 59698   5502.000000  0    2709757.401   6303075.686   -639537.205
10 0 59698   5622.000000  0    2815539.485   6100697.479  -1532539.468
10 0 59698   5742.000000  0    2867698.532   5790462.695  -2398608.546
10 0 59698   5862.000000  0    2863535.664   5378834.763  -3222557.594
10 0 59698   5982.000000  0    2801470.189   4874083.292  -3989971.654
10 0 59698   6102.000000  0    2681091.895   4286107.956  -4687460.012
10 0 59698   6222.000000  0    2503188.595   3626234.807  -5302886.022
10 0 59698   6342.000000  0    2269749.628   2906990.225  -5825570.959
99
